{
    "week": 291,
    "satellites": [
        {
            "Name": "BEIDOU-3 M13 (C32)",
            "Line1": "1 43622U 18072A   24309.42286127  .00000009  00000+0  00000+0 0  9992",
            "Line2": "2 43622  56.1106  82.2072 0004351 293.5208  66.4136  1.86231199 41675",
            "SatelliteNumber": "43622",
            "Classification": "U",
            "LaunchYear": "18",
            "LaunchNumber": "072",
            "PieceOfLaunch": "A",
            "EpochYear": "24",
            "EpochDay": 309.42286127,
            "FirstDerivativeMeanMotion": 9e-08,
            "SecondDerivativeMeanMotion": "00000+0",
            "BSTAR": "00000+0",
            "SetNumber": "999",
            "Inclination": 56.1106,
            "RAAN": 82.2072,
            "Eccentricity": 0.0004351,
            "ArgumentOfPerigee": 293.5208,
            "MeanAnomaly": 66.4136,
            "MeanMotion": 1.86231199,
            "RevolutionNumber": "4167"
        },
        {
            "Name": "BEIDOU-3 M14 (C33)",
            "Line1": "1 43623U 18072B   24307.14050982 -.00000005  00000+0  00000+0 0  9995",
            "Line2": "2 43623  56.1105  82.2764 0002234 348.9335  11.0392  1.86231203 41628",
            "SatelliteNumber": "43623",
            "Classification": "U",
            "LaunchYear": "18",
            "LaunchNumber": "072",
            "PieceOfLaunch": "B",
            "EpochYear": "24",
            "EpochDay": 307.14050982,
            "FirstDerivativeMeanMotion": -5e-08,
            "SecondDerivativeMeanMotion": "00000+0",
            "BSTAR": "00000+0",
            "SetNumber": "999",
            "Inclination": 56.1105,
            "RAAN": 82.2764,
            "Eccentricity": 0.0002234,
            "ArgumentOfPerigee": 348.9335,
            "MeanAnomaly": 11.0392,
            "MeanMotion": 1.86231203,
            "RevolutionNumber": "4162"
        },
        {
            "Name": "BEIDOU-3 M16 (C35)",
            "Line1": "1 43647U 18078A   24309.45023534 -.00000048  00000+0  00000+0 0  9993",
            "Line2": "2 43647  54.6070 320.5712 0006356   7.3290 352.7092  1.86232312 41178",
            "SatelliteNumber": "43647",
            "Classification": "U",
            "LaunchYear": "18",
            "LaunchNumber": "078",
            "PieceOfLaunch": "A",
            "EpochYear": "24",
            "EpochDay": 309.45023534,
            "FirstDerivativeMeanMotion": -4.8e-07,
            "SecondDerivativeMeanMotion": "00000+0",
            "BSTAR": "00000+0",
            "SetNumber": "999",
            "Inclination": 54.607,
            "RAAN": 320.5712,
            "Eccentricity": 0.0006356,
            "ArgumentOfPerigee": 7.329,
            "MeanAnomaly": 352.7092,
            "MeanMotion": 1.86232312,
            "RevolutionNumber": "4117"
        },
        {
            "Name": "BEIDOU-3 M15 (C34)",
            "Line1": "1 43648U 18078B   24309.04241476 -.00000050  00000+0  00000+0 0  9999",
            "Line2": "2 43648  54.6030 320.5877 0003035   3.2874 356.7441  1.86232265 41181",
            "SatelliteNumber": "43648",
            "Classification": "U",
            "LaunchYear": "18",
            "LaunchNumber": "078",
            "PieceOfLaunch": "B",
            "EpochYear": "24",
            "EpochDay": 309.04241476,
            "FirstDerivativeMeanMotion": -5e-07,
            "SecondDerivativeMeanMotion": "00000+0",
            "BSTAR": "00000+0",
            "SetNumber": "999",
            "Inclination": 54.603,
            "RAAN": 320.5877,
            "Eccentricity": 0.0003035,
            "ArgumentOfPerigee": 3.2874,
            "MeanAnomaly": 356.7441,
            "MeanMotion": 1.86232265,
            "RevolutionNumber": "4118"
        },
        {
            "Name": "BEIDOU-3 G1 (C59)",
            "Line1": "1 43683U 18085A   24309.60283720 -.00000259  00000+0  00000+0 0  9997",
            "Line2": "2 43683   2.5352 104.5328 0001626  43.8458 252.9026  1.00265778 22144",
            "SatelliteNumber": "43683",
            "Classification": "U",
            "LaunchYear": "18",
            "LaunchNumber": "085",
            "PieceOfLaunch": "A",
            "EpochYear": "24",
            "EpochDay": 309.6028372,
            "FirstDerivativeMeanMotion": -2.59e-06,
            "SecondDerivativeMeanMotion": "00000+0",
            "BSTAR": "00000+0",
            "SetNumber": "999",
            "Inclination": 2.5352,
            "RAAN": 104.5328,
            "Eccentricity": 0.0001626,
            "ArgumentOfPerigee": 43.8458,
            "MeanAnomaly": 252.9026,
            "MeanMotion": 1.00265778,
            "RevolutionNumber": "2214"
        },
        {
            "Name": "BEIDOU-3 M17 (C36)",
            "Line1": "1 43706U 18093A   24309.19480669  .00000045  00000+0  00000+0 0  9999",
            "Line2": "2 43706  54.1989 202.3186 0007567 295.6038  64.4064  1.86228450 40552",
            "SatelliteNumber": "43706",
            "Classification": "U",
            "LaunchYear": "18",
            "LaunchNumber": "093",
            "PieceOfLaunch": "A",
            "EpochYear": "24",
            "EpochDay": 309.19480669,
            "FirstDerivativeMeanMotion": 4.5e-07,
            "SecondDerivativeMeanMotion": "00000+0",
            "BSTAR": "00000+0",
            "SetNumber": "999",
            "Inclination": 54.1989,
            "RAAN": 202.3186,
            "Eccentricity": 0.0007567,
            "ArgumentOfPerigee": 295.6038,
            "MeanAnomaly": 64.4064,
            "MeanMotion": 1.8622845,
            "RevolutionNumber": "4055"
        },
        {
            "Name": "BEIDOU-3 M18 (C37)",
            "Line1": "1 43707U 18093B   24309.05900058  .00000046  00000+0  00000+0 0  9995",
            "Line2": "2 43707  54.1997 202.3150 0006896 331.6390  28.4117  1.86230019 40541",
            "SatelliteNumber": "43707",
            "Classification": "U",
            "LaunchYear": "18",
            "LaunchNumber": "093",
            "PieceOfLaunch": "B",
            "EpochYear": "24",
            "EpochDay": 309.05900058,
            "FirstDerivativeMeanMotion": 4.6e-07,
            "SecondDerivativeMeanMotion": "00000+0",
            "BSTAR": "00000+0",
            "SetNumber": "999",
            "Inclination": 54.1997,
            "RAAN": 202.315,
            "Eccentricity": 0.0006896,
            "ArgumentOfPerigee": 331.639,
            "MeanAnomaly": 28.4117,
            "MeanMotion": 1.86230019,
            "RevolutionNumber": "4054"
        },
        {
            "Name": "BEIDOU-3 IGSO-1 (C38)",
            "Line1": "1 44204U 19023A   24309.52830146 -.00000217  00000+0  00000+0 0  9995",
            "Line2": "2 44204  57.8508  43.7638 0025122 209.4575  99.1997  1.00259743  1291",
            "SatelliteNumber": "44204",
            "Classification": "U",
            "LaunchYear": "19",
            "LaunchNumber": "023",
            "PieceOfLaunch": "A",
            "EpochYear": "24",
            "EpochDay": 309.52830146,
            "FirstDerivativeMeanMotion": -2.17e-06,
            "SecondDerivativeMeanMotion": "00000+0",
            "BSTAR": "00000+0",
            "SetNumber": "999",
            "Inclination": 57.8508,
            "RAAN": 43.7638,
            "Eccentricity": 0.0025122,
            "ArgumentOfPerigee": 209.4575,
            "MeanAnomaly": 99.1997,
            "MeanMotion": 1.00259743,
            "RevolutionNumber": "129"
        },
        {
            "Name": "BEIDOU-2 G8 (C01)",
            "Line1": "1 44231U 19027A   24309.56436569 -.00000227  00000+0  00000+0 0  9995",
            "Line2": "2 44231   1.8227  74.5880 0003982 190.4436 127.0041  1.00273969 20168",
            "SatelliteNumber": "44231",
            "Classification": "U",
            "LaunchYear": "19",
            "LaunchNumber": "027",
            "PieceOfLaunch": "A",
            "EpochYear": "24",
            "EpochDay": 309.56436569,
            "FirstDerivativeMeanMotion": -2.27e-06,
            "SecondDerivativeMeanMotion": "00000+0",
            "BSTAR": "00000+0",
            "SetNumber": "999",
            "Inclination": 1.8227,
            "RAAN": 74.588,
            "Eccentricity": 0.0003982,
            "ArgumentOfPerigee": 190.4436,
            "MeanAnomaly": 127.0041,
            "MeanMotion": 1.00273969,
            "RevolutionNumber": "2016"
        },
        {
            "Name": "BEIDOU-3 IGSO-2 (C39)",
            "Line1": "1 44337U 19035A   24309.52022443 -.00000060  00000+0  00000+0 0  9994",
            "Line2": "2 44337  55.1839 164.0394 0034679 200.9721 343.3447  1.00253567 19750",
            "SatelliteNumber": "44337",
            "Classification": "U",
            "LaunchYear": "19",
            "LaunchNumber": "035",
            "PieceOfLaunch": "A",
            "EpochYear": "24",
            "EpochDay": 309.52022443,
            "FirstDerivativeMeanMotion": -6e-07,
            "SecondDerivativeMeanMotion": "00000+0",
            "BSTAR": "00000+0",
            "SetNumber": "999",
            "Inclination": 55.1839,
            "RAAN": 164.0394,
            "Eccentricity": 0.0034679,
            "ArgumentOfPerigee": 200.9721,
            "MeanAnomaly": 343.3447,
            "MeanMotion": 1.00253567,
            "RevolutionNumber": "1975"
        }
    ]
}